{"type": "FeatureCollection", "features": [{"type": "Feature", "properties": {"norad_id": 28890, "name": "BEIJING 1", "group": "dmc", "lat": 35.04612419176843, "lon": -46.066904420742446, "alt_km": 671.8417167336511, "timestamp": "2025-12-26T12:57:38.933624+00:00", "meta": {"OBJECT_NAME": "BEIJING 1", "OBJECT_ID": "2005-043A", "EPOCH": "2025-12-26T07:22:52.651776", "MEAN_MOTION": 14.63377599, "ECCENTRICITY": 0.00158514, "INCLINATION": 98.2665, "RA_OF_ASC_NODE": 127.8473, "ARG_OF_PERICENTER": 101.5455, "MEAN_ANOMALY": 258.7527, "EPHEMERIS_TYPE": 0, "CLASSIFICATION_TYPE": "U", "NORAD_CAT_ID": 28890, "ELEMENT_SET_NO": 999, "REV_AT_EPOCH": 7536, "BSTAR": 5.2674571e-05, "MEAN_MOTION_DOT": 2.24e-06, "MEAN_MOTION_DDOT": 0}, "tle": {"line1": "1 28890U 05043A   25360.30755384  .00000224  00000+0  52675-4 0  9996", "line2": "2 28890  98.2665 127.8473 0015851 101.5455 258.7527 14.63377599 75369"}}, "geometry": {"type": "Point", "coordinates": [-46.066904420742446, 35.04612419176843]}}, {"type": "Feature", "properties": {"norad_id": 33320, "name": "HUANJING 1A (HJ-1A)", "group": "dmc", "lat": 81.1477823484226, "lon": -71.46156053473918, "alt_km": 612.2895505961997, "timestamp": "2025-12-26T12:57:38.933649+00:00", "meta": {"OBJECT_NAME": "HUANJING 1A (HJ-1A)", "OBJECT_ID": "2008-041A", "EPOCH": "2025-12-26T06:06:07.221600", "MEAN_MOTION": 14.83436168, "ECCENTRICITY": 0.0019111, "INCLINATION": 97.6552, "RA_OF_ASC_NODE": 347.9889, "ARG_OF_PERICENTER": 351.1471, "MEAN_ANOMALY": 8.9404, "EPHEMERIS_TYPE": 0, "CLASSIFICATION_TYPE": "U", "NORAD_CAT_ID": 33320, "ELEMENT_SET_NO": 999, "REV_AT_EPOCH": 93276, "BSTAR": 0.00024534341, "MEAN_MOTION_DOT": 1.97e-05, "MEAN_MOTION_DDOT": 0}, "tle": {"line1": "1 33320U 08041A   25360.25425025  .00001970  00000+0  24534-3 0  9992", "line2": "2 33320  97.6552 347.9889 0019111 351.1471   8.9404 14.83436168932766"}}, "geometry": {"type": "Point", "coordinates": [-71.46156053473918, 81.1477823484226]}}, {"type": "Feature", "properties": {"norad_id": 33321, "name": "HUANJING 1B (HJ-1B)", "group": "dmc", "lat": -79.35815729839655, "lon": 37.52325797747856, "alt_km": 638.5502994084873, "timestamp": "2025-12-26T12:57:38.933664+00:00", "meta": {"OBJECT_NAME": "HUANJING 1B (HJ-1B)", "OBJECT_ID": "2008-041B", "EPOCH": "2025-12-26T06:51:14.700384", "MEAN_MOTION": 14.8285969, "ECCENTRICITY": 0.00376757, "INCLINATION": 97.6411, "RA_OF_ASC_NODE": 351.6804, "ARG_OF_PERICENTER": 32.8549, "MEAN_ANOMALY": 327.4997, "EPHEMERIS_TYPE": 0, "CLASSIFICATION_TYPE": "U", "NORAD_CAT_ID": 33321, "ELEMENT_SET_NO": 999, "REV_AT_EPOCH": 93278, "BSTAR": 0.00028283849, "MEAN_MOTION_DOT": 2.267e-05, "MEAN_MOTION_DDOT": 0}, "tle": {"line1": "1 33321U 08041B   25360.28558681  .00002267  00000+0  28284-3 0  9997", "line2": "2 33321  97.6411 351.6804 0037675  32.8549 327.4997 14.82859690932780"}}, "geometry": {"type": "Point", "coordinates": [37.52325797747856, -79.35815729839655]}}, {"type": "Feature", "properties": {"norad_id": 33446, "name": "YAOGAN-4", "group": "dmc", "lat": -2.939186873711573, "lon": 110.09557450357569, "alt_km": 624.3726276689713, "timestamp": "2025-12-26T12:57:38.933676+00:00", "meta": {"OBJECT_NAME": "YAOGAN-4", "OBJECT_ID": "2008-061A", "EPOCH": "2025-12-26T05:39:31.954464", "MEAN_MOTION": 14.82721305, "ECCENTRICITY": 0.00129545, "INCLINATION": 97.9198, "RA_OF_ASC_NODE": 290.2038, "ARG_OF_PERICENTER": 275.3518, "MEAN_ANOMALY": 84.6217, "EPHEMERIS_TYPE": 0, "CLASSIFICATION_TYPE": "U", "NORAD_CAT_ID": 33446, "ELEMENT_SET_NO": 999, "REV_AT_EPOCH": 92003, "BSTAR": 0.00018765921, "MEAN_MOTION_DOT": 1.463e-05, "MEAN_MOTION_DDOT": 0}, "tle": {"line1": "1 33446U 08061A   25360.23578651  .00001463  00000+0  18766-3 0  9992", "line2": "2 33446  97.9198 290.2038 0012954 275.3518  84.6217 14.82721305920036"}}, "geometry": {"type": "Point", "coordinates": [110.09557450357569, -2.939186873711573]}}, {"type": "Feature", "properties": {"norad_id": 35681, "name": "DEIMOS-1", "group": "dmc", "lat": -69.95166066088454, "lon": -177.68905915330043, "alt_km": 653.6164905276373, "timestamp": "2025-12-26T12:57:38.933688+00:00", "meta": {"OBJECT_NAME": "DEIMOS-1", "OBJECT_ID": "2009-041A", "EPOCH": "2025-12-26T06:46:18.197184", "MEAN_MOTION": 14.74972651, "ECCENTRICITY": 0.00024348, "INCLINATION": 97.7158, "RA_OF_ASC_NODE": 160.2558, "ARG_OF_PERICENTER": 59.0928, "MEAN_ANOMALY": 301.052, "EPHEMERIS_TYPE": 0, "CLASSIFICATION_TYPE": "U", "NORAD_CAT_ID": 35681, "ELEMENT_SET_NO": 999, "REV_AT_EPOCH": 88139, "BSTAR": 0.00013174174, "MEAN_MOTION_DOT": 8.38e-06, "MEAN_MOTION_DDOT": 0}, "tle": {"line1": "1 35681U 09041A   25360.28215506  .00000838  00000+0  13174-3 0  9999", "line2": "2 35681  97.7158 160.2558 0002434  59.0928 301.0520 14.74972651881391"}}, "geometry": {"type": "Point", "coordinates": [-177.68905915330043, -69.95166066088454]}}, {"type": "Feature", "properties": {"norad_id": 35683, "name": "UK-DMC 2", "group": "dmc", "lat": -22.64767711342251, "lon": 138.35711089320972, "alt_km": 648.9915287130179, "timestamp": "2025-12-26T12:57:38.933699+00:00", "meta": {"OBJECT_NAME": "UK-DMC 2", "OBJECT_ID": "2009-041C", "EPOCH": "2025-12-26T08:10:55.494048", "MEAN_MOTION": 14.75650082, "ECCENTRICITY": 0.00015732, "INCLINATION": 97.8574, "RA_OF_ASC_NODE": 134.8605, "ARG_OF_PERICENTER": 93.107, "MEAN_ANOMALY": 267.032, "EPHEMERIS_TYPE": 0, "CLASSIFICATION_TYPE": "U", "NORAD_CAT_ID": 35683, "ELEMENT_SET_NO": 999, "REV_AT_EPOCH": 88107, "BSTAR": 0.00017436691, "MEAN_MOTION_DOT": 1.142e-05, "MEAN_MOTION_DDOT": 0}, "tle": {"line1": "1 35683U 09041C   25360.34092007  .00001142  00000+0  17437-3 0  9992", "line2": "2 35683  97.8574 134.8605 0001573  93.1070 267.0320 14.75650082881072"}}, "geometry": {"type": "Point", "coordinates": [138.35711089320972, -22.64767711342251]}}, {"type": "Feature", "properties": {"norad_id": 40715, "name": "DMC3-FM1", "group": "dmc", "lat": 26.71533811060571, "lon": 51.11684023574117, "alt_km": 612.1773127628248, "timestamp": "2025-12-26T12:57:38.933710+00:00", "meta": {"OBJECT_NAME": "DMC3-FM1", "OBJECT_ID": "2015-032A", "EPOCH": "2025-12-26T05:48:27.412416", "MEAN_MOTION": 14.85461598, "ECCENTRICITY": 0.00040899, "INCLINATION": 97.6678, "RA_OF_ASC_NODE": 226.9419, "ARG_OF_PERICENTER": 264.4871, "MEAN_ANOMALY": 95.5878, "EPHEMERIS_TYPE": 0, "CLASSIFICATION_TYPE": "U", "NORAD_CAT_ID": 40715, "ELEMENT_SET_NO": 999, "REV_AT_EPOCH": 56423, "BSTAR": 8.1090809e-05, "MEAN_MOTION_DOT": 6.48e-06, "MEAN_MOTION_DDOT": 0}, "tle": {"line1": "1 40715U 15032A   25360.24198394  .00000648  00000+0  81091-4 0  9994", "line2": "2 40715  97.6678 226.9419 0004089 264.4871  95.5878 14.85461598564231"}}, "geometry": {"type": "Point", "coordinates": [51.11684023574117, 26.71533811060571]}}, {"type": "Feature", "properties": {"norad_id": 40716, "name": "DMC3-FM2", "group": "dmc", "lat": 32.44466973900519, "lon": -136.23397496292876, "alt_km": 611.9591077101322, "timestamp": "2025-12-26T12:57:38.933721+00:00", "meta": {"OBJECT_NAME": "DMC3-FM2", "OBJECT_ID": "2015-032B", "EPOCH": "2025-12-26T06:20:49.590240", "MEAN_MOTION": 14.85465261, "ECCENTRICITY": 0.00045653, "INCLINATION": 97.6735, "RA_OF_ASC_NODE": 228.4173, "ARG_OF_PERICENTER": 271.1833, "MEAN_ANOMALY": 88.8859, "EPHEMERIS_TYPE": 0, "CLASSIFICATION_TYPE": "U", "NORAD_CAT_ID": 40716, "ELEMENT_SET_NO": 999, "REV_AT_EPOCH": 56423, "BSTAR": 0.00014385058, "MEAN_MOTION_DOT": 1.189e-05, "MEAN_MOTION_DDOT": 0}, "tle": {"line1": "1 40716U 15032B   25360.26446285  .00001189  00000+0  14385-3 0  9994", "line2": "2 40716  97.6735 228.4173 0004565 271.1833  88.8859 14.85465261564237"}}, "geometry": {"type": "Point", "coordinates": [-136.23397496292876, 32.44466973900519]}}, {"type": "Feature", "properties": {"norad_id": 40717, "name": "DMC3-FM3", "group": "dmc", "lat": -79.88291326744663, "lon": -80.54638814581668, "alt_km": 616.8350562896121, "timestamp": "2025-12-26T12:57:38.933731+00:00", "meta": {"OBJECT_NAME": "DMC3-FM3", "OBJECT_ID": "2015-032C", "EPOCH": "2025-12-26T06:52:08.297760", "MEAN_MOTION": 14.85451084, "ECCENTRICITY": 0.00038582, "INCLINATION": 97.6793, "RA_OF_ASC_NODE": 230.0803, "ARG_OF_PERICENTER": 273.0434, "MEAN_ANOMALY": 87.034, "EPHEMERIS_TYPE": 0, "CLASSIFICATION_TYPE": "U", "NORAD_CAT_ID": 40717, "ELEMENT_SET_NO": 999, "REV_AT_EPOCH": 56424, "BSTAR": 0.00012067082, "MEAN_MOTION_DOT": 9.89e-06, "MEAN_MOTION_DDOT": 0}, "tle": {"line1": "1 40717U 15032C   25360.28620715  .00000989  00000+0  12067-3 0  9991", "line2": "2 40717  97.6793 230.0803 0003858 273.0434  87.0340 14.85451084564248"}}, "geometry": {"type": "Point", "coordinates": [-80.54638814581668, -79.88291326744663]}}]}